TIANMU-1 08             
1 57400U 23101B   26066.00237819  .00000346  00000+0  14775-4 0  9993
2 57400  97.2717 118.7901 0006380 134.2174 225.9592 15.29204229146020
STARLINK-34792          
1 65085U 25167H   26068.29405525  .00036989  00000+0  12553-2 0  9991
2 65085  53.1617  28.8965 0001315 113.0373 247.0767 15.30187314 33412
